NORAD_CAT_ID,OBJECT_NAME,OBJECT_TYPE,EPOCH,MEAN_MOTION,ECCENTRICITY,INCLINATION,RA_OF_ASC_NODE,ARG_OF_PERICENTER,MEAN_ANOMALY,BSTAR,MEAN_MOTION_DOT,MEAN_MOTION_DDOT,TLE_LINE0,TLE_LINE1,TLE_LINE2,SEMIMAJOR_AXIS,PERIOD,APOGEE,PERIGEE,DECAYED
50812.0,STARLINK-3338,PAYLOAD,2022-07-28 17:27:48,15.0885673,0.0001819,53.2176,324.6544,56.595,303.5216,0.00012689,1.733e-05,0.0,0 STARLINK-3338,1 50812U 22001K   22209.72763931  .00001733  00000-0  12689-3 0  9997,2 50812  53.2176 324.6544 0001819  56.5950 303.5216 15.08856730 31275,6917.829000000002,95.436,540.953,538.436,0.0
50812.0,STARLINK-3338,PAYLOAD,2022-07-29 10:57:06,15.08776911,0.0001028,53.2177,321.384,62.1034,298.0062,0.002008,0.00031758,0.0,0 STARLINK-3338,1 50812U 22001K   22210.45632177  .00031758  00000-0  20080-2 0  9999,2 50812  53.2177 321.3840 0001028  62.1034 298.0062 15.08776911 32637,6918.073,95.442,540.649,539.227,0.0
50812.0,STARLINK-3338,PAYLOAD,2022-07-29 17:18:35,15.08843684,0.0001786999999999,53.218,320.1935,58.1077,302.0089,7.8455e-05,9.61e-06,0.0,0 STARLINK-3338,1 50812U 22001K   22210.72124109  .00000961  00000-0  78455-4 0  9993,2 50812  53.2180 320.1935 0001787  58.1077 302.0089 15.08843684 32678,6917.869000000002,95.437,540.97,538.498,0.0
50812.0,STARLINK-3338,PAYLOAD,2022-07-30 10:47:50,15.08833986,0.0001798,53.218,316.9236,57.6234,302.4932,-6.6747e-05,-1.35e-05,0.0,0 STARLINK-3338,1 50812U 22001K   22211.44989023 -.00001350  00000-0 -66747-4 0  9993,2 50812  53.2180 316.9236 0001798  57.6234 302.4932 15.08833986 32783,6917.899,95.438,541.008,538.52,0.0
50812.0,STARLINK-3338,PAYLOAD,2022-07-30 13:58:36,15.08836366,0.0001795,53.218,316.329,57.0904,303.0261,-4.7711e-05,-1.047e-05,0.0,0 STARLINK-3338,1 50812U 22001K   22211.58236836 -.00001047  00000-0 -47711-4 0  9998,2 50812  53.2180 316.3290 0001795  57.0904 303.0261 15.08836366 31553,6917.891,95.438,540.998,538.515,0.0
50812.0,STARLINK-3338,PAYLOAD,2022-07-30 15:33:59,15.08838439,0.0001792,53.2179,316.0315,52.5226,307.5929,-9.061e-05,-1.73e-05,0.0,0 STARLINK-3338,1 50812U 22001K   22211.64860822 -.00001730  00000-0 -90610-4 0  9998,2 50812  53.2179 316.0315 0001792  52.5226 307.5929 15.08838439 31564,6917.885,95.438,540.99,538.51,0.0
50812.0,STARLINK-3338,PAYLOAD,2022-07-31 13:49:23,15.08837246,0.0001761999999999,53.2178,311.8684,53.6541,306.4614,3.7866e-05,3.15e-06,0.0,0 STARLINK-3338,1 50812U 22001K   22212.57596784  .00000315  00000-0  37866-4 0  9994,2 50812  53.2178 311.8684 0001762  53.6541 306.4614 15.08837246 32952,6917.889,95.438,540.9730000000002,538.535,0.0
50812.0,STARLINK-3338,PAYLOAD,2022-08-01 10:29:24,15.08838742,0.000171,53.2176,308.0025,52.3162,307.7985,0.00014156,1.966e-05,0.0,0 STARLINK-3338,1 50812U 22001K   22213.43708606  .00001966  00000-0  14156-3 0  9997,2 50812  53.2176 308.0025 0001710  52.3162 307.7985 15.08838742 31838,6917.884,95.438,540.932,538.566,0.0
50812.0,STARLINK-3338,PAYLOAD,2022-08-02 11:55:35,15.08834063,0.0001695,53.2177,303.2448,53.1043,307.0105,1.6117000000000002e-05,-3.2e-07,0.0,0 STARLINK-3338,1 50812U 22001K   22214.49693359 -.00000032  00000-0  16117-4 0  9996,2 50812  53.2177 303.2448 0001695  53.1043 307.0105 15.08834063 31990,6917.899,95.438,540.936,538.591,0.0
50812.0,STARLINK-3338,PAYLOAD,2022-08-03 11:46:21,15.08843996,0.0001597,53.2173,298.7842,49.8924,310.2208,1.5165e-05,-4.7e-07,0.0,0 STARLINK-3338,1 50812U 22001K   22215.49052738 -.00000047  00000-0  15165-4 0  9995,2 50812  53.2173 298.7842 0001597  49.8924 310.2208 15.08843996 33394,6917.868,95.437,540.8380000000002,538.628,0.0
50812.0,STARLINK-3338,PAYLOAD,2022-08-03 13:21:44,15.08844432,0.000162,53.2174,298.4869,49.8584,310.255,1.9588e-05,2.4e-07,0.0,0 STARLINK-3338,1 50812U 22001K   22215.55676685  .00000024  00000-0  19588-4 0  9992,2 50812  53.2174 298.4869 0001620  49.8584 310.2550 15.08844432 32159,6917.8669999999975,95.437,540.8530000000002,538.611,0.0
50812.0,STARLINK-3338,PAYLOAD,2022-08-04 11:37:09,15.08830433,0.0001649,53.2174,294.3238,47.3261,312.7869,1.644e-05,-2.6e-07,0.0,0 STARLINK-3338,1 50812U 22001K   22216.48413463 -.00000026  00000-0  16440-4 0  9995,2 50812  53.2174 294.3238 0001649  47.3261 312.7869 15.08830433 32291,6917.91,95.438,540.915,538.634,0.0
50812.0,STARLINK-3338,PAYLOAD,2022-08-04 14:47:55,15.08830721,0.0001662,53.2173,293.7292,47.3854,312.7278,1.548e-05,-4.2e-07,0.0,0 STARLINK-3338,1 50812U 22001K   22216.61661499 -.00000042  00000-0  15480-4 0  9995,2 50812  53.2173 293.7292 0001662  47.3854 312.7278 15.08830721 32313,6917.909000000002,95.438,540.924,538.624,0.0
50812.0,STARLINK-3338,PAYLOAD,2022-08-05 09:52:32,15.0883949,0.0001669,53.2173,290.161,47.4251,312.6882,3.1288e-05,2.1e-06,0.0,0 STARLINK-3338,1 50812U 22001K   22217.41149134  .00000210  00000-0  31288-4 0  9991,2 50812  53.2173 290.1610 0001669  47.4251 312.6882 15.08839490 32432,6917.882,95.438,540.9019999999998,538.592,0.0
50812.0,STARLINK-3338,PAYLOAD,2022-08-05 14:38:42,15.08839851,0.0001683,53.2172,289.2689,47.56399999999999,312.5495,3.2378e-05,2.27e-06,0.0,0 STARLINK-3338,1 50812U 22001K   22217.61021108  .00000227  00000-0  32378-4 0  9992,2 50812  53.2172 289.2689 0001683  47.5640 312.5495 15.08839851 33717,6917.880999999999,95.438,540.91,538.582,0.0
50812.0,STARLINK-3338,PAYLOAD,2022-08-06 11:18:42,15.088413699999998,0.0001685,53.2168,285.4036,45.9625,314.1506,0.00014376,2.001e-05,0.0,0 STARLINK-3338,1 50812U 22001K   22218.47132572  .00002001  00000-0  14376-3 0  9994,2 50812  53.2168 285.4036 0001685  45.9625 314.1506 15.08841370 32598,6917.876,95.437,540.9069999999998,538.576,0.0
50812.0,STARLINK-3338,PAYLOAD,2022-08-07 03:12:34,15.08833542,0.0001593,53.2164,282.4298,51.3206,308.7929,4.3284e-05,4.01e-06,0.0,0 STARLINK-3338,1 50812U 22001K   22219.13373648  .00000401  00000-0  43284-4 0  9992,2 50812  53.2164 282.4298 0001593  51.3206 308.7929 15.08833542 33945,6917.9,95.438,540.867,538.663,0.0
50812.0,STARLINK-3338,PAYLOAD,2022-08-07 11:09:30,15.0883737,0.0001757,53.2166,280.9435,50.4143,309.7004,4.5055e-05,4.29e-06,0.0,0 STARLINK-3338,1 50812U 22001K   22219.46493577  .00000429  00000-0  45055-4 0  9990,2 50812  53.2166 280.9435 0001757  50.4143 309.7004 15.08837370 32740,6917.888000000001,95.438,540.969,538.538,0.0
50812.0,STARLINK-3338,PAYLOAD,2022-08-08 03:03:21,15.08847496,0.0001719,53.2161,277.969,51.5183,308.5963,9.415e-05,1.211e-05,0.0,0 STARLINK-3338,1 50812U 22001K   22220.12732904  .00001211  00000-0  94150-4 0  9995,2 50812  53.2161 277.9690 0001719  51.5183 308.5963 15.08847496 34099,6917.857,95.437,540.9119999999998,538.533,0.0
50812.0,STARLINK-3338,PAYLOAD,2022-08-08 09:24:53,15.08852254,0.0001785,53.2164,276.7803,51.8101,308.3052,0.00011981,1.62e-05,0.0,0 STARLINK-3338,1 50812U 22001K   22220.39228502  .00001620  00000-0  11981-3 0  9992,2 50812  53.2164 276.7803 0001785  51.8101 308.3052 15.08852254 32881,6917.843000000003,95.437,540.943,538.4730000000002,0.0
50812.0,STARLINK-3338,PAYLOAD,2022-08-08 20:32:34,15.08862099,0.0001791,53.2156,274.6981,49.2054,310.9093,9.2335e-05,1.183e-05,0.0,0 STARLINK-3338,1 50812U 22001K   22220.85595732  .00001183  00000-0  92335-4 0  9992,2 50812  53.2156 274.6981 0001791  49.2054 310.9093 15.08862099 32951,6917.813,95.436,540.9169999999998,538.439,0.0
50812.0,STARLINK-3338,PAYLOAD,2022-08-09 07:40:17,15.08846912,0.0001884,53.2158,272.6171,53.1599,306.9566,6.9587e-05,8.2e-06,0.0,0 STARLINK-3338,1 50812U 22001K   22221.31964363  .00000820  00000-0  69587-4 0  9994,2 50812  53.2158 272.6171 0001884  53.1599 306.9566 15.08846912 34276,6917.859,95.437,541.028,538.4209999999998,0.0
50812.0,STARLINK-3338,PAYLOAD,2022-08-10 10:41:52,15.08824132,0.0001865,53.2166,267.5613,54.1712,305.9453,-0.00016914,-2.978e-05,0.0,0 STARLINK-3338,1 50812U 22001K   22222.44574868 -.00002978  00000-0 -16914-3 0  9999,2 50812  53.2166 267.5613 0001865  54.1712 305.9453 15.08824132 33190,6917.929,95.439,541.0840000000002,538.504,0.0
50812.0,STARLINK-3338,PAYLOAD,2022-08-11 04:11:07,15.08825477,0.000183,53.2163,264.2897,48.7632,311.3518,-7.7522e-05,-1.521e-05,0.0,0 STARLINK-3338,1 50812U 22001K   22223.17438963 -.00001521  00000-0 -77522-4 0  9991,2 50812  53.2163 264.2897 0001830  48.7632 311.3518 15.08825477 34554,6917.925,95.438,541.056,538.524,0.0
50812.0,STARLINK-3338,PAYLOAD,2022-08-11 10:32:40,15.08824809,0.0001886999999999,53.2163,263.1006,47.841,312.2742,-6.666199999999999e-05,-1.348e-05,0.0,0 STARLINK-3338,1 50812U 22001K   22223.43935234 -.00001348  00000-0 -66662-4 0  9993,2 50812  53.2163 263.1006 0001887  47.8410 312.2742 15.08824809 33343,6917.927,95.439,541.097,538.486,0.0
50812.0,STARLINK-3338,PAYLOAD,2022-08-12 11:58:50,15.08822686,0.0001921,53.2161,258.3424,48.4558,311.6598,0.00012263,1.663e-05,0.0,0 STARLINK-3338,1 50812U 22001K   22224.49919942  .00001663  00000-0  12263-3 0  9993,2 50812  53.2161 258.3424 0001921  48.4558 311.6598 15.08822686 33501,6917.933000000001,95.439,541.127,538.469,0.0
50812.0,STARLINK-3338,PAYLOAD,2022-08-13 10:14:14,15.0883226,0.0001959,53.2161,254.1792,48.9402,311.1759,0.00011419,1.529e-05,0.0,0 STARLINK-3338,1 50812U 22001K   22225.42656160  .00001529  00000-0  11419-3 0  9990,2 50812  53.2161 254.1792 0001959  48.9402 311.1759 15.08832260 33645,6917.904,95.438,541.124,538.414,0.0
50812.0,STARLINK-3338,PAYLOAD,2022-08-14 06:54:15,15.08842777,0.0002005999999999,53.216,250.3136,49.2969,310.8197,9.6216e-05,1.244e-05,0.0,0 STARLINK-3338,1 50812U 22001K   22226.28767765  .00001244  00000-0  96216-4 0  9992,2 50812  53.2160 250.3136 0002006  49.2969 310.8197 15.08842777 35020,6917.871999999999,95.437,541.125,538.349,0.0
50812.0,STARLINK-3338,PAYLOAD,2022-08-14 08:29:38,15.08843402,0.0002003,53.216,250.0162,49.3873,310.7293,0.00010023,1.307e-05,0.0,0 STARLINK-3338,1 50812U 22001K   22226.35391707  .00001307  00000-0  10023-3 0  9990,2 50812  53.2160 250.0162 0002003  49.3873 310.7293 15.08843402 33781,6917.87,95.437,541.121,538.349,0.0
